{"type": "FeatureCollection", "features": [ {"type": "Feature", "properties": {"norad_id": 34376, "name": "IRIDIUM 33 DEB", "group": "iridium-33-debris", "lat": -82.23511904341883, "lon": -27.461889846246528, "alt_km": 709.4349184420171, "timestamp": "2025-12-25T07:41:10.108176+00:00", "meta": {"OBJECT_NAME": "IRIDIUM 33 DEB", "OBJECT_ID": "1997-051FU", "EPOCH": "2025-12-24T17:17:28.891392", "MEAN_MOTION": 14.62726881, "ECCENTRICITY": 0.00284367, "INCLINATION": 86.2983, "RA_OF_ASC_NODE": 1.1525, "ARG_OF_PERICENTER": 127.427, "MEAN_ANOMALY": 232.9536, "EPHEMERIS_TYPE": 0, "CLASSIFICATION_TYPE": "U", "NORAD_CAT_ID": 34376, "ELEMENT_SET_NO": 999, "REV_AT_EPOCH": 88182, "BSTAR": 0.001533236, "MEAN_MOTION_DOT": 7.879e-05, "MEAN_MOTION_DDOT": 0}, "tle": {"line1": "1 34376U 97051FU  25358.72047328  .00007879  00000+0  15332-2 0  9997", "line2": "2 34376  86.2983   1.1525 0028436 127.4270 232.9536 14.62726881881823"}}, "geometry": {"type": "Point", "coordinates": [-27.461889846246528, -82.23511904341883]}}, {"type": "Feature", "properties": {"norad_id": 34486, "name": "IRIDIUM 33 DEB", "group": "iridium-33-debris", "lat": -24.78830232493385, "lon": -172.11553355747313, "alt_km": 590.022897512943, "timestamp": "2025-12-25T07:41:10.108187+00:00", "meta": {"OBJECT_NAME": "IRIDIUM 33 DEB", "OBJECT_ID": "1997-051GB", "EPOCH": "2025-12-24T00:31:38.959680", "MEAN_MOTION": 14.96285435, "ECCENTRICITY": 0.00139233, "INCLINATION": 86.3926, "RA_OF_ASC_NODE": 6.8146, "ARG_OF_PERICENTER": 80.2681, "MEAN_ANOMALY": 335.5299, "EPHEMERIS_TYPE": 0, "CLASSIFICATION_TYPE": "U", "NORAD_CAT_ID": 34486, "ELEMENT_SET_NO": 999, "REV_AT_EPOCH": 89155, "BSTAR": 0.0020880938, "MEAN_MOTION_DOT": 0.00023707, "MEAN_MOTION_DDOT": 0}, "tle": {"line1": "1 34486U 97051GB  25358.02197870  .00023707  00000+0  20881-2 0  9993", "line2": "2 34486  86.3926   6.8146 0013923  80.2681 335.5299 14.96285435891550"}}, "geometry": {"type": "Point", "coordinates": [-172.11553355747313, -24.78830232493385]}}, {"type": "Feature", "properties": {"norad_id": 34487, "name": "IRIDIUM 33 DEB", "group": "iridium-33-debris", "lat": -10.41367680760645, "lon": 6.2869337705372255, "alt_km": 755.9185054011923, "timestamp": "2025-12-25T07:41:10.108197+00:00", "meta": {"OBJECT_NAME": "IRIDIUM 33 DEB", "OBJECT_ID": "1997-051GC", "EPOCH": "2025-12-24T00:25:07.192704", "MEAN_MOTION": 14.43230021, "ECCENTRICITY": 0.00332562, "INCLINATION": 86.3429, "RA_OF_ASC_NODE": 7.5212, "ARG_OF_PERICENTER": 93.3155, "MEAN_ANOMALY": 332.1294, "EPHEMERIS_TYPE": 0, "CLASSIFICATION_TYPE": "U", "NORAD_CAT_ID": 34487, "ELEMENT_SET_NO": 999, "REV_AT_EPOCH": 88411, "BSTAR": 0.00017640846, "MEAN_MOTION_DOT": 6.17e-06, "MEAN_MOTION_DDOT": 0}, "tle": {"line1": "1 34487U 97051GC  25358.01744436  .00000617  00000+0  17641-3 0  9995", "line2": "2 34487  86.3429   7.5212 0033256  93.3155 332.1294 14.43230021884118"}}, "geometry": {"type": "Point", "coordinates": [6.2869337705372255, -10.41367680760645]}}, {"type": "Feature", "properties": {"norad_id": 34488, "name": "IRIDIUM 33 DEB", "group": "iridium-33-debris", "lat": -34.43534719311418, "lon": -62.95736278166182, "alt_km": 471.58277978283877, "timestamp": "2025-12-25T07:41:10.108207+00:00", "meta": {"OBJECT_NAME": "IRIDIUM 33 DEB", "OBJECT_ID": "1997-051GD", "EPOCH": "2025-12-24T20:52:00.225984", "MEAN_MOTION": 15.32501741, "ECCENTRICITY": 0.00092779, "INCLINATION": 86.3252, "RA_OF_ASC_NODE": 299.7925, "ARG_OF_PERICENTER": 31.7639, "MEAN_ANOMALY": 328.4169, "EPHEMERIS_TYPE": 0, "CLASSIFICATION_TYPE": "U", "NORAD_CAT_ID": 34488, "ELEMENT_SET_NO": 999, "REV_AT_EPOCH": 89425, "BSTAR": 0.0047265493, "MEAN_MOTION_DOT": 0.0015116, "MEAN_MOTION_DDOT": 0}, "tle": {"line1": "1 34488U 97051GD  25358.86944706  .00151160  00000+0  47265-2 0  9995", "line2": "2 34488  86.3252 299.7925 0009277  31.7639 328.4169 15.32501741894252"}}, "geometry": {"type": "Point", "coordinates": [-62.95736278166182, -34.43534719311418]}}, {"type": "Feature", "properties": {"norad_id": 34492, "name": "IRIDIUM 33 DEB", "group": "iridium-33-debris", "lat": 13.611260278379627, "lon": -29.601745832417375, "alt_km": 941.8099558143485, "timestamp": "2025-12-25T07:41:10.108217+00:00", "meta": {"OBJECT_NAME": "IRIDIUM 33 DEB", "OBJECT_ID": "1997-051GH", "EPOCH": "2025-12-24T21:39:21.521088", "MEAN_MOTION": 14.25932668, "ECCENTRICITY": 0.01887861, "INCLINATION": 86.473, "RA_OF_ASC_NODE": 329.7114, "ARG_OF_PERICENTER": 198.6425, "MEAN_ANOMALY": 190.963, "EPHEMERIS_TYPE": 0, "CLASSIFICATION_TYPE": "U", "NORAD_CAT_ID": 34492, "ELEMENT_SET_NO": 999, "REV_AT_EPOCH": 85232, "BSTAR": 0.0029502111, "MEAN_MOTION_DOT": 8.501e-05, "MEAN_MOTION_DDOT": 0}, "tle": {"line1": "1 34492U 97051GH  25358.90233242  .00008501  00000+0  29502-2 0  9995", "line2": "2 34492  86.4730 329.7114 0188786 198.6425 190.9630 14.25932668852326"}}, "geometry": {"type": "Point", "coordinates": [-29.601745832417375, 13.611260278379627]}}, {"type": "Feature", "properties": {"norad_id": 34497, "name": "IRIDIUM 33 DEB", "group": "iridium-33-debris", "lat": -33.76628722714548, "lon": 44.53180503764551, "alt_km": 756.7251371579296, "timestamp": "2025-12-25T07:41:10.108228+00:00", "meta": {"OBJECT_NAME": "IRIDIUM 33 DEB", "OBJECT_ID": "1997-051GN", "EPOCH": "2025-12-22T21:33:03.136608", "MEAN_MOTION": 14.27482363, "ECCENTRICITY": 0.00780484, "INCLINATION": 86.2769, "RA_OF_ASC_NODE": 48.0617, "ARG_OF_PERICENTER": 306.2683, "MEAN_ANOMALY": 179.2919, "EPHEMERIS_TYPE": 0, "CLASSIFICATION_TYPE": "U", "NORAD_CAT_ID": 34497, "ELEMENT_SET_NO": 999, "REV_AT_EPOCH": 87028, "BSTAR": 0.00056228088, "MEAN_MOTION_DOT": 1.443e-05, "MEAN_MOTION_DDOT": 0}, "tle": {"line1": "1 34497U 97051GN  25356.89795297  .00001443  00000+0  56228-3 0  9993", "line2": "2 34497  86.2769  48.0617 0078048 306.2683 179.2919 14.27482363870281"}}, "geometry": {"type": "Point", "coordinates": [44.53180503764551, -33.76628722714548]}}, {"type": "Feature", "properties": {"norad_id": 34508, "name": "IRIDIUM 33 DEB", "group": "iridium-33-debris", "lat": -81.24003066519418, "lon": -58.36296670372717, "alt_km": 800.8646666623517, "timestamp": "2025-12-25T07:41:10.108238+00:00", "meta": {"OBJECT_NAME": "IRIDIUM 33 DEB", "OBJECT_ID": "1997-051GZ", "EPOCH": "2025-12-24T17:07:17.089536", "MEAN_MOTION": 14.3851431, "ECCENTRICITY": 0.00666407, "INCLINATION": 86.3702, "RA_OF_ASC_NODE": 97.5672, "ARG_OF_PERICENTER": 134.5991, "MEAN_ANOMALY": 226.0672, "EPHEMERIS_TYPE": 0, "CLASSIFICATION_TYPE": "U", "NORAD_CAT_ID": 34508, "ELEMENT_SET_NO": 999, "REV_AT_EPOCH": 87481, "BSTAR": 0.0012177441, "MEAN_MOTION_DOT": 3.837e-05, "MEAN_MOTION_DDOT": 0}, "tle": {"line1": "1 34508U 97051GZ  25358.71339224  .00003837  00000+0  12177-2 0  9996", "line2": "2 34508  86.3702  97.5672 0066640 134.5991 226.0672 14.38514310874811"}}, "geometry": {"type": "Point", "coordinates": [-58.36296670372717, -81.24003066519418]}}, {"type": "Feature", "properties": {"norad_id": 34521, "name": "IRIDIUM 33 DEB", "group": "iridium-33-debris", "lat": 52.62526006113516, "lon": -159.74782170991898, "alt_km": 675.4562793583154, "timestamp": "2025-12-25T07:41:10.108248+00:00", "meta": {"OBJECT_NAME": "IRIDIUM 33 DEB", "OBJECT_ID": "1997-051HN", "EPOCH": "2025-12-24T19:37:11.782272", "MEAN_MOTION": 14.63462765, "ECCENTRICITY": 0.00031171, "INCLINATION": 86.3786, "RA_OF_ASC_NODE": 25.2294, "ARG_OF_PERICENTER": 167.2726, "MEAN_ANOMALY": 192.8565, "EPHEMERIS_TYPE": 0, "CLASSIFICATION_TYPE": "U", "NORAD_CAT_ID": 34521, "ELEMENT_SET_NO": 999, "REV_AT_EPOCH": 88649, "BSTAR": 0.00083071408, "MEAN_MOTION_DOT": 4.322e-05, "MEAN_MOTION_DDOT": 0}, "tle": {"line1": "1 34521U 97051HN  25358.81749748  .00004322  00000+0  83071-3 0  9990", "line2": "2 34521  86.3786  25.2294 0003117 167.2726 192.8565 14.63462765886497"}}, "geometry": {"type": "Point", "coordinates": [-159.74782170991898, 52.62526006113516]}}, {"type": "Feature", "properties": {"norad_id": 34525, "name": "IRIDIUM 33 DEB", "group": "iridium-33-debris", "lat": 79.98753496468751, "lon": -159.58968142814132, "alt_km": 737.8219259525786, "timestamp": "2025-12-25T07:41:10.108258+00:00", "meta": {"OBJECT_NAME": "IRIDIUM 33 DEB", "OBJECT_ID": "1997-051HS", "EPOCH": "2025-12-24T15:10:06.285216", "MEAN_MOTION": 14.42932485, "ECCENTRICITY": 0.00062598, "INCLINATION": 86.3717, "RA_OF_ASC_NODE": 41.7672, "ARG_OF_PERICENTER": 67.6588, "MEAN_ANOMALY": 58.8012, "EPHEMERIS_TYPE": 0, "CLASSIFICATION_TYPE": "U", "NORAD_CAT_ID": 34525, "ELEMENT_SET_NO": 999, "REV_AT_EPOCH": 88259, "BSTAR": 0.00032535718, "MEAN_MOTION_DOT": 1.107e-05, "MEAN_MOTION_DDOT": 0}, "tle": {"line1": "1 34525U 97051HS  25358.63201719  .00001107  00000+0  32536-3 0  9993", "line2": "2 34525  86.3717  41.7672 0006259  67.6588  58.8012 14.42932485882590"}}, "geometry": {"type": "Point", "coordinates": [-159.58968142814132, 79.98753496468751]}}, {"type": "Feature", "properties": {"norad_id": 34529, "name": "IRIDIUM 33 DEB", "group": "iridium-33-debris", "lat": -69.88137785342866, "lon": -139.9525191957304, "alt_km": 765.2406384350134, "timestamp": "2025-12-25T07:41:10.108268+00:00", "meta": {"OBJECT_NAME": "IRIDIUM 33 DEB", "OBJECT_ID": "1997-051HW", "EPOCH": "2025-12-24T12:11:30.511392", "MEAN_MOTION": 14.40625137, "ECCENTRICITY": 0.00061125, "INCLINATION": 86.3629, "RA_OF_ASC_NODE": 30.3944, "ARG_OF_PERICENTER": 143.5438, "MEAN_ANOMALY": 216.6179, "EPHEMERIS_TYPE": 0, "CLASSIFICATION_TYPE": "U", "NORAD_CAT_ID": 34529, "ELEMENT_SET_NO": 999, "REV_AT_EPOCH": 88311, "BSTAR": 0.00012093871, "MEAN_MOTION_DOT": 4.06e-06, "MEAN_MOTION_DDOT": 0}, "tle": {"line1": "1 34529U 97051HW  25358.50799203  .00000406  00000+0  12094-3 0  9991", "line2": "2 34529  86.3629  30.3944 0006112 143.5438 216.6179 14.40625137883116"}}, "geometry": {"type": "Point", "coordinates": [-139.9525191957304, -69.88137785342866]}}]}